[{"OBJECT_NAME":"HULIANWANG DIGUI-17","OBJECT_ID":"2025-030G","EPOCH":"2026-03-02T22:57:35.777376","MEAN_MOTION":13.29337996,"ECCENTRICITY":7.447e-5,"INCLINATION":50.0048,"RA_OF_ASC_NODE":256.575,"ARG_OF_PERICENTER":150.3256,"MEAN_ANOMALY":209.7659,"EPHEMERIS_TYPE":0,"CLASSIFICATION_TYPE":"U","NORAD_CAT_ID":62977,"ELEMENT_SET_NO":999,"REV_AT_EPOCH":5173,"BSTAR":7.9227122e-5,"MEAN_MOTION_DOT":-8.7e-7,"MEAN_MOTION_DDOT":0},{"OBJECT_NAME":"HULIANWANG DIGUI-18","OBJECT_ID":"2025-030H","EPOCH":"2026-03-02T22:45:32.332032","MEAN_MOTION":13.29338097,"ECCENTRICITY":7.839e-5,"INCLINATION":50.0052,"RA_OF_ASC_NODE":256.5416,"ARG_OF_PERICENTER":152.7189,"MEAN_ANOMALY":207.3725,"EPHEMERIS_TYPE":0,"CLASSIFICATION_TYPE":"U","NORAD_CAT_ID":62978,"ELEMENT_SET_NO":999,"REV_AT_EPOCH":5173,"BSTAR":8.240932e-5,"MEAN_MOTION_DOT":-8.6e-7,"MEAN_MOTION_DDOT":0},{"OBJECT_NAME":"HULIANWANG DIGUI-19","OBJECT_ID":"2025-030J","EPOCH":"2026-03-02T21:45:06.798816","MEAN_MOTION":13.29341142,"ECCENTRICITY":8.048e-5,"INCLINATION":50.0037,"RA_OF_ASC_NODE":256.9403,"ARG_OF_PERICENTER":145.8852,"MEAN_ANOMALY":214.2072,"EPHEMERIS_TYPE":0,"CLASSIFICATION_TYPE":"U","NORAD_CAT_ID":62979,"ELEMENT_SET_NO":999,"REV_AT_EPOCH":5172,"BSTAR":8.9977702e-5,"MEAN_MOTION_DOT":-8.2e-7,"MEAN_MOTION_DDOT":0},{"OBJECT_NAME":"HULIANWANG DIGUI-20","OBJECT_ID":"2025-086A","EPOCH":"2026-03-02T22:55:20.292672","MEAN_MOTION":13.24419886,"ECCENTRICITY":0.00016954,"INCLINATION":86.5124,"RA_OF_ASC_NODE":348.9031,"ARG_OF_PERICENTER":92.2159,"MEAN_ANOMALY":267.9169,"EPHEMERIS_TYPE":0,"CLASSIFICATION_TYPE":"U","NORAD_CAT_ID":63687,"ELEMENT_SET_NO":999,"REV_AT_EPOCH":4081,"BSTAR":8.6972432e-5,"MEAN_MOTION_DOT":5.2e-7,"MEAN_MOTION_DDOT":0},{"OBJECT_NAME":"HULIANWANG DIGUI-21","OBJECT_ID":"2025-086B","EPOCH":"2026-03-02T23:06:07.860672","MEAN_MOTION":13.24421484,"ECCENTRICITY":0.00015809,"INCLINATION":86.5153,"RA_OF_ASC_NODE":348.9292,"ARG_OF_PERICENTER":94.7408,"MEAN_ANOMALY":265.3907,"EPHEMERIS_TYPE":0,"CLASSIFICATION_TYPE":"U","NORAD_CAT_ID":63688,"ELEMENT_SET_NO":999,"REV_AT_EPOCH":4080,"BSTAR":0.00011756618,"MEAN_MOTION_DOT":6.5e-7,"MEAN_MOTION_DDOT":0},{"OBJECT_NAME":"HULIANWANG DIGUI-22","OBJECT_ID":"2025-086C","EPOCH":"2026-03-02T23:17:01.360896","MEAN_MOTION":13.24421242,"ECCENTRICITY":0.00017676,"INCLINATION":86.5118,"RA_OF_ASC_NODE":348.8305,"ARG_OF_PERICENTER":92.5267,"MEAN_ANOMALY":267.6069,"EPHEMERIS_TYPE":0,"CLASSIFICATION_TYPE":"U","NORAD_CAT_ID":63689,"ELEMENT_SET_NO":999,"REV_AT_EPOCH":4080,"BSTAR":0.00014617668,"MEAN_MOTION_DOT":7.7e-7,"MEAN_MOTION_DDOT":0},{"OBJECT_NAME":"HULIANWANG DIGUI-23","OBJECT_ID":"2025-086D","EPOCH":"2026-03-02T23:38:42.472320","MEAN_MOTION":13.2442201,"ECCENTRICITY":0.00017155,"INCLINATION":86.516,"RA_OF_ASC_NODE":348.9611,"ARG_OF_PERICENTER":88.6158,"MEAN_ANOMALY":271.5173,"EPHEMERIS_TYPE":0,"CLASSIFICATION_TYPE":"U","NORAD_CAT_ID":63690,"ELEMENT_SET_NO":999,"REV_AT_EPOCH":4080,"BSTAR":0.00010269879,"MEAN_MOTION_DOT":5.9e-7,"MEAN_MOTION_DDOT":0},{"OBJECT_NAME":"HULIANWANG DIGUI-24","OBJECT_ID":"2025-086E","EPOCH":"2026-03-02T22:00:52.548768","MEAN_MOTION":13.24420101,"ECCENTRICITY":0.00017373,"INCLINATION":86.5167,"RA_OF_ASC_NODE":349.0104,"ARG_OF_PERICENTER":92.8639,"MEAN_ANOMALY":267.2694,"EPHEMERIS_TYPE":0,"CLASSIFICATION_TYPE":"U","NORAD_CAT_ID":63691,"ELEMENT_SET_NO":999,"REV_AT_EPOCH":4079,"BSTAR":6.2708487e-5,"MEAN_MOTION_DOT":4.2e-7,"MEAN_MOTION_DDOT":0},{"OBJECT_NAME":"HULIANWANG DIGUI-25","OBJECT_ID":"2025-086F","EPOCH":"2026-03-02T22:11:43.528704","MEAN_MOTION":13.24421539,"ECCENTRICITY":0.00016333,"INCLINATION":86.5105,"RA_OF_ASC_NODE":348.8311,"ARG_OF_PERICENTER":91.4679,"MEAN_ANOMALY":268.6643,"EPHEMERIS_TYPE":0,"CLASSIFICATION_TYPE":"U","NORAD_CAT_ID":63692,"ELEMENT_SET_NO":999,"REV_AT_EPOCH":4079,"BSTAR":4.600711e-5,"MEAN_MOTION_DOT":3.4e-7,"MEAN_MOTION_DDOT":0},{"OBJECT_NAME":"HULIANWANG DIGUI-26","OBJECT_ID":"2025-086G","EPOCH":"2026-03-02T23:27:43.261920","MEAN_MOTION":13.24421059,"ECCENTRICITY":0.00017034,"INCLINATION":86.5154,"RA_OF_ASC_NODE":348.9387,"ARG_OF_PERICENTER":97.0299,"MEAN_ANOMALY":263.1029,"EPHEMERIS_TYPE":0,"CLASSIFICATION_TYPE":"U","NORAD_CAT_ID":63693,"ELEMENT_SET_NO":999,"REV_AT_EPOCH":4080,"BSTAR":0.00014524414,"MEAN_MOTION_DOT":7.7e-7,"MEAN_MOTION_DDOT":0},{"OBJECT_NAME":"HULIANWANG DIGUI-27","OBJECT_ID":"2025-086H","EPOCH":"2026-03-02T22:22:42.805632","MEAN_MOTION":13.24419869,"ECCENTRICITY":0.00017375,"INCLINATION":86.5115,"RA_OF_ASC_NODE":348.8629,"ARG_OF_PERICENTER":92.2401,"MEAN_ANOMALY":267.8932,"EPHEMERIS_TYPE":0,"CLASSIFICATION_TYPE":"U","NORAD_CAT_ID":63694,"ELEMENT_SET_NO":999,"REV_AT_EPOCH":4079,"BSTAR":2.632682e-6,"MEAN_MOTION_DOT":1.6e-7,"MEAN_MOTION_DDOT":0},{"OBJECT_NAME":"HULIANWANG DIGUI-28","OBJECT_ID":"2025-086J","EPOCH":"2026-03-02T22:44:21.801120","MEAN_MOTION":13.24421198,"ECCENTRICITY":0.0001733,"INCLINATION":86.5079,"RA_OF_ASC_NODE":348.7631,"ARG_OF_PERICENTER":91.983,"MEAN_ANOMALY":268.1502,"EPHEMERIS_TYPE":0,"CLASSIFICATION_TYPE":"U","NORAD_CAT_ID":63695,"ELEMENT_SET_NO":999,"REV_AT_EPOCH":4079,"BSTAR":5.9096036e-5,"MEAN_MOTION_DOT":4.0e-7,"MEAN_MOTION_DDOT":0},{"OBJECT_NAME":"HULIANWANG DIGUI-29","OBJECT_ID":"2025-086K","EPOCH":"2026-03-02T22:33:35.672544","MEAN_MOTION":13.24420058,"ECCENTRICITY":0.00016204,"INCLINATION":86.5107,"RA_OF_ASC_NODE":348.8451,"ARG_OF_PERICENTER":92.2056,"MEAN_ANOMALY":267.9263,"EPHEMERIS_TYPE":0,"CLASSIFICATION_TYPE":"U","NORAD_CAT_ID":63696,"ELEMENT_SET_NO":999,"REV_AT_EPOCH":4079,"BSTAR":3.9951823e-5,"MEAN_MOTION_DOT":3.2e-7,"MEAN_MOTION_DDOT":0},{"OBJECT_NAME":"HULIANWANG DIGUI-30","OBJECT_ID":"2025-121A","EPOCH":"2026-03-02T22:44:12.908832","MEAN_MOTION":13.24423298,"ECCENTRICITY":0.00020017,"INCLINATION":86.4943,"RA_OF_ASC_NODE":49.4013,"ARG_OF_PERICENTER":79.6709,"MEAN_ANOMALY":280.465,"EPHEMERIS_TYPE":0,"CLASSIFICATION_TYPE":"U","NORAD_CAT_ID":64283,"ELEMENT_SET_NO":999,"REV_AT_EPOCH":3609,"BSTAR":3.9344593e-5,"MEAN_MOTION_DOT":3.2e-7,"MEAN_MOTION_DDOT":0},{"OBJECT_NAME":"HULIANWANG DIGUI-31","OBJECT_ID":"2025-121B","EPOCH":"2026-03-02T22:33:38.820096","MEAN_MOTION":13.24419477,"ECCENTRICITY":0.00020335,"INCLINATION":86.4963,"RA_OF_ASC_NODE":49.4538,"ARG_OF_PERICENTER":79.8974,"MEAN_ANOMALY":280.2389,"EPHEMERIS_TYPE":0,"CLASSIFICATION_TYPE":"U","NORAD_CAT_ID":64284,"ELEMENT_SET_NO":999,"REV_AT_EPOCH":3609,"BSTAR":2.6812815e-5,"MEAN_MOTION_DOT":2.6e-7,"MEAN_MOTION_DDOT":0},{"OBJECT_NAME":"HULIANWANG DIGUI-32","OBJECT_ID":"2025-121C","EPOCH":"2026-03-02T22:22:16.222944","MEAN_MOTION":13.2442512,"ECCENTRICITY":0.00020171,"INCLINATION":86.4905,"RA_OF_ASC_NODE":49.2872,"ARG_OF_PERICENTER":81.9723,"MEAN_ANOMALY":278.164,"EPHEMERIS_TYPE":0,"CLASSIFICATION_TYPE":"U","NORAD_CAT_ID":64285,"ELEMENT_SET_NO":999,"REV_AT_EPOCH":3609,"BSTAR":4.5262522e-5,"MEAN_MOTION_DOT":3.4e-7,"MEAN_MOTION_DDOT":0}]
