HULIANWANG DIGUI-17     
1 62977U 25030G   26061.95666409 -.00000087  00000+0  79227-4 0  9997
2 62977  50.0048 256.5750 0000744 150.3256 209.7659 13.29337996 51733
HULIANWANG DIGUI-18     
1 62978U 25030H   26061.94829088 -.00000086  00000+0  82409-4 0  9996
2 62978  50.0052 256.5416 0000783 152.7189 207.3725 13.29338097 51733
HULIANWANG DIGUI-19     
1 62979U 25030J   26061.90632869 -.00000082  00000+0  89978-4 0  9996
2 62979  50.0037 256.9403 0000804 145.8852 214.2072 13.29341142 51727
HULIANWANG DIGUI-20     
1 63687U 25086A   26061.95509598  .00000052  00000+0  86972-4 0  9998
2 63687  86.5124 348.9031 0001695  92.2159 267.9169 13.24419886 40814
HULIANWANG DIGUI-21     
1 63688U 25086B   26061.96259098  .00000065  00000+0  11757-3 0  9999
2 63688  86.5153 348.9292 0001580  94.7408 265.3907 13.24421484 40801
HULIANWANG DIGUI-22     
1 63689U 25086C   26061.97015464  .00000077  00000+0  14618-3 0  9990
2 63689  86.5118 348.8305 0001767  92.5267 267.6069 13.24421242 40809
HULIANWANG DIGUI-23     
1 63690U 25086D   26061.98521380  .00000059  00000+0  10270-3 0  9992
2 63690  86.5160 348.9611 0001715  88.6158 271.5173 13.24422010 40801
HULIANWANG DIGUI-24     
1 63691U 25086E   26061.91727487  .00000042  00000+0  62708-4 0  9998
2 63691  86.5167 349.0104 0001737  92.8639 267.2694 13.24420101 40790
HULIANWANG DIGUI-25     
1 63692U 25086F   26061.92480936  .00000034  00000+0  46007-4 0  9990
2 63692  86.5105 348.8311 0001633  91.4679 268.6643 13.24421539 40799
HULIANWANG DIGUI-26     
1 63693U 25086G   26061.97758405  .00000077  00000+0  14524-3 0  9990
2 63693  86.5154 348.9387 0001703  97.0299 263.1029 13.24421059 40803
HULIANWANG DIGUI-27     
1 63694U 25086H   26061.93243988  .00000016  00000+0  26327-5 0  9991
2 63694  86.5115 348.8629 0001737  92.2401 267.8932 13.24419869 40796
HULIANWANG DIGUI-28     
1 63695U 25086J   26061.94747455  .00000040  00000+0  59096-4 0  9996
2 63695  86.5079 348.7631 0001733  91.9830 268.1502 13.24421198 40791
HULIANWANG DIGUI-29     
1 63696U 25086K   26061.93999621  .00000032  00000+0  39952-4 0  9990
2 63696  86.5107 348.8451 0001620  92.2056 267.9263 13.24420058 40799
HULIANWANG DIGUI-30     
1 64283U 25121A   26061.94737163  .00000032  00000+0  39345-4 0  9991
2 64283  86.4943  49.4013 0002001  79.6709 280.4650 13.24423298 36092
HULIANWANG DIGUI-31     
1 64284U 25121B   26061.94003264  .00000026  00000+0  26813-4 0  9999
2 64284  86.4963  49.4538 0002033  79.8974 280.2389 13.24419477 36099
HULIANWANG DIGUI-32     
1 64285U 25121C   26061.93213221  .00000034  00000+0  45263-4 0  9994
2 64285  86.4905  49.2872 0002017  81.9723 278.1640 13.24425120 36091
